[{"OBJECT_NAME":"SUPERVIEW NEO-2 04","OBJECT_ID":"2024-218C","EPOCH":"2026-03-09T13:29:09.194208","MEAN_MOTION":15.1971885,"ECCENTRICITY":0.0001369,"INCLINATION":97.4396,"RA_OF_ASC_NODE":77.3157,"ARG_OF_PERICENTER":109.3587,"MEAN_ANOMALY":250.7796,"EPHEMERIS_TYPE":0,"CLASSIFICATION_TYPE":"U","NORAD_CAT_ID":62080,"ELEMENT_SET_NO":999,"REV_AT_EPOCH":7131,"BSTAR":0.00019862,"MEAN_MOTION_DOT":4.175e-5,"MEAN_MOTION_DDOT":0},{"OBJECT_NAME":"HAWK-12C","OBJECT_ID":"2025-138A","EPOCH":"2026-03-09T22:54:55.356768","MEAN_MOTION":15.17353041,"ECCENTRICITY":0.00157924,"INCLINATION":97.4363,"RA_OF_ASC_NODE":73.1446,"ARG_OF_PERICENTER":124.4693,"MEAN_ANOMALY":235.8035,"EPHEMERIS_TYPE":0,"CLASSIFICATION_TYPE":"U","NORAD_CAT_ID":64621,"ELEMENT_SET_NO":999,"REV_AT_EPOCH":3881,"BSTAR":0.00031482945,"MEAN_MOTION_DOT":6.237e-5,"MEAN_MOTION_DDOT":0}]
